147P/Kushida-Muramatsu,e,2.3606,93.3047,351.1266,3.953814,0.1253660,0.24062009,213.8210,09/23.0/2020,2000,g 14.0,4.0
# From MPEC 2014-R70
148P/Anderson-LINEAR,e,3.6716,89.5320,7.0743,3.642724,0.1417636,0.54882064,270.9302,09/23.0/2020,2000,g  9.0,4.0
# From MPC 75720
149P/Mueller,e,29.8488,145.0865,44.1923,4.329957,0.1093903,0.39135602,63.7422,09/23.0/2020,2000,g  8.0,8.0
# From MPC 75720
150P/LONEOS,e,18.5074,272.4034,245.5656,3.880066,0.1289572,0.54659832,196.3576,09/23.0/2020,2000,g 13.5,4.0
# From MPEC 2015-Q71
151P/Helin,e,4.7274,143.1513,216.0478,5.764465,0.0712140,0.57309672,128.9334,09/23.0/2020,2000,g 10.0,6.0
# From MPC 79346
152P/Helin-Lawrence,e,9.8797,91.8669,163.8417,4.480326,0.1039297,0.30907092,310.4030,09/23.0/2020,2000,g 11.5,4.0
# From MPC 46101
153P/Ikeya-Zhang,e,27.7333,93.0716,35.1883,50.82175,0.0027204,0.98963978,0.0000,03/09.3521/2002,2000,g  9.0,4.0
# From MPC 87068
154P/Brewington,e,17.6307,343.0216,47.8433,4.803577,0.0936175,0.67526457,232.6214,09/23.0/2020,2000,g  2.5,12.0
# From MPC118098
155P/Shoemaker,e,6.3959,97.1967,14.6495,6.583781,0.0583433,0.72635067,18.2628,09/23.0/2020,2000,g 10.0,4.8
# From MPEC 2020-K19
156P/Russell-LINEAR,e,17.2630,35.3699,0.4246,3.459893,0.1531476,0.61472014,351.4436,09/23.0/2020,2000,g 15.5,2.0
# From MPC104795
157P/Tritton,e,12.7262,287.9362,155.1857,3.535244,0.1482774,0.56618475,254.5382,09/23.0/2020,2000,g 10.0,4.0
# From MPEC 2016-K18
158P/Kowal-LINEAR,e,7.9609,135.6733,183.4572,4.891206,0.0911130,0.01971293,327.9827,09/23.0/2020,2000,g  9.0,4.0
# From MPEC 2020-L06
159P/LONEOS,e,23.4618,54.9998,4.6114,5.856018,0.0695505,0.38151480,59.4681,09/23.0/2020,2000,g 10.0,4.0
# From MPEC 2019-TG9
160P/LINEAR,e,15.6158,333.3639,12.6732,3.772915,0.1344896,0.52621963,39.7647,09/23.0/2020,2000,g 15.5,2.0
# From MPC 75721
161P/Hartley-IRAS,e,95.7551,1.4896,46.9259,7.726711,0.0458894,0.83458028,256.3796,09/23.0/2020,2000,g  8.5,6.0
# From MPEC 2020-K19
162P/Siding Spring,e,27.5545,30.9121,357.1296,3.090736,0.1813891,0.58289893,346.2479,09/23.0/2020,2000,g 12.0,4.0
# From MPEC 2020-HN5
163P/NEAT,e,12.7080,102.0907,349.6508,3.769088,0.1346944,0.45183675,55.8825,09/23.0/2020,2000,g 14.5,4.0
# From MPC106349
164P/Christensen,e,16.2539,88.3017,325.8480,3.657762,0.1408902,0.53976200,119.1529,09/23.0/2020,2000,g 11.0,4.0
# From MPC 75721
165P/LINEAR,e,15.8983,0.7822,126.1638,17.89659,0.0130181,0.61475109,96.7717,09/23.0/2020,2000,g 11.5,2.0
# From MPC 75722
166P/NEAT,e,15.3636,64.4860,321.4446,13.82795,0.0191676,0.38249394,128.6666,09/23.0/2020,2000,g  5.5,4.0
# From MPC 75722
167P/CINEOS,e,19.1214,295.6531,344.2792,16.19537,0.0151223,0.27280564,107.0318,09/23.0/2020,2000,g  9.5,2.0
# From MPC102101
168P/Hergenrother,e,21.6148,355.4589,14.9942,3.582114,0.1453767,0.62074330,60.3027,09/23.0/2020,2000,g 15.5,4.0
# From MPEC 2020-L06
169P/NEAT,e,11.2970,176.0944,218.0605,2.601346,0.2349129,0.76803706,206.1653,09/23.0/2020,2000,g 16.0,2.0
# From MPC 89012
170P/Christensen,e,10.1250,142.9220,225.6365,4.198139,0.1145826,0.30354097,252.2283,09/23.0/2020,2000,g 12.0,4.0
# From MPC102102
171P/Spahr,e,21.9338,101.6964,347.1083,3.556137,0.1469726,0.50163397,90.8986,09/23.0/2020,2000,g 13.5,4.0
# From MPEC 2019-VB6
172P/Yeung,e,11.2315,30.8966,209.3994,4.211355,0.1140437,0.20593421,147.0448,09/23.0/2020,2000,g 13.0,4.0
# From MPEC 2020-HN5
173P/Mueller,e,16.4968,100.4017,29.3037,5.702175,0.0723841,0.26058736,327.3764,09/23.0/2020,2000,g  7.5,4.0
# From MPC 92985
174P/Echeclus,e,4.3431,173.2485,162.9681,10.70823,0.0281273,0.45721564,55.6695,09/23.0/2020,2000,g  9.4,2.0
# From MPC114608
175P/Hergenrother,e,6.0788,123.5228,56.3263,3.432356,0.1549942,0.43267237,55.4671,09/23.0/2020,2000,g 14.0,4.0
# From MPC 89015
176P/LINEAR,e,0.2347,345.8795,35.1273,3.193101,0.1727368,0.19303467,223.2153,09/23.0/2020,2000,g 15.1,2.0
# From MPEC 2020-L06
177P/Barnard,e,31.3211,272.3275,60.1755,24.39225,0.0081814,0.95519013,42.0266,09/23.0/2020,2000,g 15.0,4.0
# From MPC105242
178P/Hug-Bell,e,11.0896,102.8747,297.7869,3.630964,0.1424528,0.48187912,9.7417,09/23.0/2020,2000,g 13.5,4.0
# From MPC 75723
179P/Jedicke,e,19.8992,115.5264,296.5917,5.940852,0.0680661,0.30623330,318.3371,09/23.0/2020,2000,g  2.5,8.0
# From MPC100284
180P/NEAT,e,16.8678,84.5605,94.8674,3.861754,0.1298755,0.35320558,227.1606,09/23.0/2020,2000,g 11.0,4.0
# From MPC 89012
181P/Shoemaker-Levy,e,17.4867,35.4121,336.2518,3.871266,0.1293971,0.70043523,298.8174,09/23.0/2020,2000,g 11.5,4.0
# From MPEC 2014-J10
182P/LONEOS,e,16.2298,72.6701,53.8906,2.955480,0.1939822,0.66213339,244.2656,09/23.0/2020,2000,g 18.0,4.0
# From MPC110085
183P/Korlevic-Juric,e,18.6883,5.1386,164.5021,4.523652,0.1024402,0.13924519,105.3948,09/23.0/2020,2000,g 12.5,2.0
# From MPEC 2020-K19
184P/Lovas,e,4.5728,173.2554,186.4340,3.793391,0.1334021,0.55098868,355.5725,09/23.0/2020,2000,g 13.5,4.0
# From MPC109593
185P/Petriew,e,14.0004,214.0955,181.8802,3.099320,0.1806361,0.69899860,175.1275,09/23.0/2020,2000,g 15.0,4.0
# From MPEC 2020-K19
186P/Garradd,e,28.6011,326.7163,283.5576,5.006963,0.0879716,0.12401772,45.0239,09/23.0/2020,2000,g  7.5,4.0
# From MPC104795
187P/LINEAR,e,13.6347,109.9236,132.1084,4.572422,0.1008056,0.15227974,86.6488,09/23.0/2020,2000,g  9.0,4.0
# From MPC106349
188P/LINEAR-Mueller,e,10.5213,358.9571,26.5783,4.375648,0.1076814,0.41538937,141.4838,09/23.0/2020,2000,g 11.5,4.0
# From MPC106349
189P/NEAT,e,20.0730,281.7394,16.2625,2.947122,0.1948081,0.58874300,222.7167,09/23.0/2020,2000,g 19.0,4.0
# From MPEC 2020-K19
190P/Mueller,e,2.1742,335.5759,50.2781,4.235308,0.1130776,0.52095794,184.2486,09/23.0/2020,2000,g 13.0,4.0
# From MPEC 2020-K19
191P/McNaught,e,8.8429,98.2364,283.9684,3.636339,0.1421371,0.38612166,334.6987,09/23.0/2020,2000,g 13.0,4.0
# From MPC 75724
192P/Shoemaker-Levy,e,24.5413,51.6363,312.9216,6.478079,0.0597771,0.77292923,279.9103,09/23.0/2020,2000,g 15.0,4.0
# From MPC 92277
193P/LINEAR-NEAT,e,10.6868,335.1873,8.2332,3.576511,0.1457185,0.39411583,310.9437,09/23.0/2020,2000,g 14.0,4.0
# From MPC 98566
194P/LINEAR,e,11.2084,351.4568,130.8582,3.984502,0.1239204,0.57873306,206.4574,09/23.0/2020,2000,g 16.0,4.0
# From MPC 75724
195P/Hill,e,36.3392,243.1069,249.4216,6.499876,0.0594766,0.31323247,254.6909,09/23.0/2020,2000,g  8.5,4.0
# From MPC 92985
196P/Tichy,e,19.2983,24.1968,12.2918,3.798671,0.1331240,0.42858630,257.8740,09/23.0/2020,2000,g 13.5,4.0
# From MPC 94676
197P/LINEAR,e,25.5443,66.3924,188.7406,2.867447,0.2029836,0.62981226,196.5086,09/23.0/2020,2000,g 16.5,2.0
# From NK 1596
198P/ODAS,e,1.3386,358.2513,69.2372,3.599963,0.1442969,0.44317302,93.6821,09/23.0/2020,2000,g  9.0,4.0
# From MPC 75725
199P/Shoemaker,e,24.9344,92.3949,191.6032,5.896857,0.0688293,0.50608572,287.8232,09/23.0/2020,2000,g 10.0,4.0
# From MPC118098
200P/Larsen,e,12.1030,234.8018,134.0297,4.938683,0.0898023,0.33232442,37.9120,09/23.0/2020,2000,g  9.0,4.0
# From MPC 93588
201P/LONEOS,e,5.7374,19.7803,41.4765,3.356665,0.1602662,0.63725985,320.6369,09/23.0/2020,2000,g 14.0,4.0
# From MPC103849
202P/Scotti,e,2.0397,180.3638,276.4055,4.011998,0.1226487,0.27906853,196.9244,09/23.0/2020,2000,g 13.5,4.0
# From MPEC 2019-TG9
203P/Korlevic,e,2.9733,290.3485,154.8507,4.671385,0.0976193,0.31505690,19.7275,09/23.0/2020,2000,g 14.5,2.0
# From MPC 98566
204P/LINEAR-NEAT,e,6.6363,108.8330,355.1502,3.620280,0.1430839,0.48433658,247.7083,09/23.0/2020,2000,g 14.0,4.0
# From MPC 98566
205P/Giacobini,e,15.3029,179.6014,154.1958,3.542577,0.1478172,0.56791468,289.4224,09/23.0/2020,2000,g 13.0,4.0
# From MPC 75725
206P/Barnard-Boattini,e,33.6313,202.3522,189.4538,3.488217,0.1512860,0.55140575,335.4199,09/23.0/2020,2000,g 19.0,4.0
# From MPC 75725
207P/NEAT,e,10.1567,199.1846,272.3168,3.865373,0.1296931,0.76020783,200.8242,09/23.0/2020,2000,g 16.0,4.0
# From MPC101100
208P/McMillan,e,4.4095,36.3590,310.4047,4.046745,0.1210724,0.37346575,186.8051,09/23.0/2020,2000,g 12.5,4.0
# From MPC 90771
209P/LINEAR,e,21.2577,62.7688,152.4813,2.960244,0.1935142,0.67318120,90.6159,09/23.0/2020,2000,g 17.0,2.0
# From MPC105242
210P/Christensen,e,10.2620,93.8345,345.9057,3.165358,0.1750128,0.83320780,29.4158,09/23.0/2020,2000,g 13.5,4.0
# From MPC 96868
211P/Hill,e,18.9221,117.1401,4.1550,3.548044,0.1474758,0.34280762,250.6068,09/23.0/2020,2000,g 12.5,4.0
# From MPC104795
212P/NEAT,e,22.4978,98.5939,14.1342,3.880428,0.1289391,0.58972831,190.6623,09/23.0/2020,2000,g 17.0,2.0
# From MPC114608
213P/Van Ness,e,10.3827,311.3000,5.6135,3.348163,0.1608771,0.40814491,175.9746,09/23.0/2020,2000,g 10.5,4.0
# From MPC 92986
214P/LINEAR,e,15.1849,348.2578,190.2728,3.616487,0.1433091,0.48588881,254.9003,09/23.0/2020,2000,g 13.0,4.0
# From MPC118098
215P/NEAT,e,10.5815,56.6835,262.0973,4.327668,0.1094771,0.16697210,33.8955,09/23.0/2020,2000,g 11.0,4.0
# From MPC100284
216P/LINEAR,e,9.0528,359.8160,151.3568,3.869806,0.1294703,0.44571901,204.2360,09/23.0/2020,2000,g 13.0,4.0
# From MPC108598
217P/LINEAR,e,12.8645,125.4787,246.8433,3.951468,0.1254776,0.68840100,146.0562,09/23.0/2020,2000,g 12.0,4.0
# From MPEC 2020-K19
218P/LINEAR,e,2.7255,175.9756,59.7862,3.093751,0.1811240,0.62184934,358.0478,09/23.0/2020,2000,g 16.0,4.0
# From MPC100284
219P/LINEAR,e,11.5297,230.9900,107.3753,3.650626,0.1413035,0.35366944,185.0082,09/23.0/2020,2000,g 11.0,4.0
# From MPEC 2020-K19
220P/McNaught,e,8.1282,150.1039,180.5382,3.116505,0.1791440,0.50190479,345.9119,09/23.0/2020,2000,g 15.0,4.0
# From MPC 93589
221P/LINEAR,e,11.4261,229.7157,40.0610,3.457364,0.1533156,0.49281247,290.8586,09/23.0/2020,2000,g 14.5,4.0
# From MPC 92277
222P/LINEAR,e,5.0955,6.7910,346.2327,2.899406,0.1996367,0.71446436,95.0012,09/23.0/2020,2000,g 20.0,4.0
# From MPEC 2020-HN5
223P/Skiff,e,27.0188,346.7730,37.8200,4.159213,0.1161950,0.41575474,70.2604,09/23.0/2020,2000,g 12.0,4.0
# From MPC 75727
224P/LINEAR-NEAT,e,13.3146,40.3131,16.7732,3.439041,0.1545426,0.40808683,246.1145,09/23.0/2020,2000,g 15.5,4.0
# From MPC 75727
225P/LINEAR,e,21.3527,14.1856,3.8661,3.650802,0.1412933,0.63775063,211.7075,09/23.0/2020,2000,g 18.0,4.0
# From MPC106349
